{"type": "FeatureCollection", "features": [ {"type": "Feature", "properties": {"norad_id": 30663, "name": "FENGYUN 1C DEB", "group": "fengyun-1c-debris", "lat": 56.427090310384465, "lon": 111.16319156624174, "alt_km": 706.0701244250067, "timestamp": "2025-12-27T09:28:56.754316+00:00", "meta": {"OBJECT_NAME": "FENGYUN 1C DEB", "OBJECT_ID": "1999-025APV", "EPOCH": "2025-12-26T00:15:07.187040", "MEAN_MOTION": 13.23217109, "ECCENTRICITY": 0.06496593, "INCLINATION": 99.3033, "RA_OF_ASC_NODE": 275.6212, "ARG_OF_PERICENTER": 104.3174, "MEAN_ANOMALY": 263.0938, "EPHEMERIS_TYPE": 0, "CLASSIFICATION_TYPE": "U", "NORAD_CAT_ID": 30663, "ELEMENT_SET_NO": 999, "REV_AT_EPOCH": 89223, "BSTAR": 0.0030033194, "MEAN_MOTION_DOT": 3.918e-05, "MEAN_MOTION_DDOT": 0}, "tle": {"line1": "1 30663U 99025APV 25360.01049985  .00003918  00000+0  30033-2 0  9996", "line2": "2 30663  99.3033 275.6212 0649659 104.3174 263.0938 13.23217109892235"}}, "geometry": {"type": "Point", "coordinates": [111.16319156624174, 56.427090310384465]}}, {"type": "Feature", "properties": {"norad_id": 30665, "name": "FENGYUN 1C DEB", "group": "fengyun-1c-debris", "lat": -14.561579942085144, "lon": -24.190198507047338, "alt_km": 904.5487552397644, "timestamp": "2025-12-27T09:28:56.754326+00:00", "meta": {"OBJECT_NAME": "FENGYUN 1C DEB", "OBJECT_ID": "1999-025APX", "EPOCH": "2025-12-26T21:55:08.007168", "MEAN_MOTION": 14.12417271, "ECCENTRICITY": 0.0067823, "INCLINATION": 99.2092, "RA_OF_ASC_NODE": 332.8996, "ARG_OF_PERICENTER": 161.9807, "MEAN_ANOMALY": 254.9089, "EPHEMERIS_TYPE": 0, "CLASSIFICATION_TYPE": "U", "NORAD_CAT_ID": 30665, "ELEMENT_SET_NO": 999, "REV_AT_EPOCH": 96170, "BSTAR": 0.0015968, "MEAN_MOTION_DOT": 2.965e-05, "MEAN_MOTION_DDOT": 0}, "tle": {"line1": "1 30665U 99025APX 25360.91328712  .00002965  00000+0  15968-2 0  9996", "line2": "2 30665  99.2092 332.8996 0067823 161.9807 254.9089 14.12417271961701"}}, "geometry": {"type": "Point", "coordinates": [-24.190198507047338, -14.561579942085144]}}, {"type": "Feature", "properties": {"norad_id": 30666, "name": "FENGYUN 1C DEB", "group": "fengyun-1c-debris", "lat": -2.7892196814439574, "lon": -15.015430939107896, "alt_km": 900.6462565080119, "timestamp": "2025-12-27T09:28:56.754336+00:00", "meta": {"OBJECT_NAME": "FENGYUN 1C DEB", "OBJECT_ID": "1999-025APY", "EPOCH": "2025-12-26T10:15:05.027328", "MEAN_MOTION": 14.02568753, "ECCENTRICITY": 0.0061413, "INCLINATION": 98.8238, "RA_OF_ASC_NODE": 343.6134, "ARG_OF_PERICENTER": 106.5932, "MEAN_ANOMALY": 46.6052, "EPHEMERIS_TYPE": 0, "CLASSIFICATION_TYPE": "U", "NORAD_CAT_ID": 30666, "ELEMENT_SET_NO": 999, "REV_AT_EPOCH": 96302, "BSTAR": 0.00048176, "MEAN_MOTION_DOT": 7.12e-06, "MEAN_MOTION_DDOT": 0}, "tle": {"line1": "1 30666U 99025APY 25360.42714152  .00000712  00000+0  48176-3 0  9996", "line2": "2 30666  98.8238 343.6134 0061413 106.5932  46.6052 14.02568753963020"}}, "geometry": {"type": "Point", "coordinates": [-15.015430939107896, -2.7892196814439574]}}, {"type": "Feature", "properties": {"norad_id": 30668, "name": "FENGYUN 1C DEB", "group": "fengyun-1c-debris", "lat": 73.25983282781257, "lon": 42.40697504527319, "alt_km": 880.5663257032875, "timestamp": "2025-12-27T09:28:56.754346+00:00", "meta": {"OBJECT_NAME": "FENGYUN 1C DEB", "OBJECT_ID": "1999-025AQA", "EPOCH": "2025-12-27T04:09:26.061984", "MEAN_MOTION": 14.12419366, "ECCENTRICITY": 0.008001, "INCLINATION": 99.13, "RA_OF_ASC_NODE": 74.5015, "ARG_OF_PERICENTER": 206.072, "MEAN_ANOMALY": 182.9878, "EPHEMERIS_TYPE": 0, "CLASSIFICATION_TYPE": "U", "NORAD_CAT_ID": 30668, "ELEMENT_SET_NO": 999, "REV_AT_EPOCH": 96259, "BSTAR": 0.0018855, "MEAN_MOTION_DOT": 3.54e-05, "MEAN_MOTION_DDOT": 0}, "tle": {"line1": "1 30668U 99025AQA 25361.17321831  .00003540  00000+0  18855-2 0  9991", "line2": "2 30668  99.1300  74.5015 0080010 206.0720 182.9878 14.12419366962596"}}, "geometry": {"type": "Point", "coordinates": [42.40697504527319, 73.25983282781257]}}, {"type": "Feature", "properties": {"norad_id": 30669, "name": "FENGYUN 1C DEB", "group": "fengyun-1c-debris", "lat": -15.438232905410633, "lon": -60.2809297245845, "alt_km": 963.5401507406095, "timestamp": "2025-12-27T09:28:56.754356+00:00", "meta": {"OBJECT_NAME": "FENGYUN 1C DEB", "OBJECT_ID": "1999-025AQB", "EPOCH": "2025-12-26T18:27:24.685344", "MEAN_MOTION": 14.02782622, "ECCENTRICITY": 0.01184409, "INCLINATION": 98.6367, "RA_OF_ASC_NODE": 296.7195, "ARG_OF_PERICENTER": 136.8531, "MEAN_ANOMALY": 288.4244, "EPHEMERIS_TYPE": 0, "CLASSIFICATION_TYPE": "U", "NORAD_CAT_ID": 30669, "ELEMENT_SET_NO": 999, "REV_AT_EPOCH": 95650, "BSTAR": 0.0014668672, "MEAN_MOTION_DOT": 2.373e-05, "MEAN_MOTION_DDOT": 0}, "tle": {"line1": "1 30669U 99025AQB 25360.76903571  .00002373  00000+0  14669-2 0  9995", "line2": "2 30669  98.6367 296.7195 0118440 136.8531 288.4244 14.02782622956500"}}, "geometry": {"type": "Point", "coordinates": [-60.2809297245845, -15.438232905410633]}}, {"type": "Feature", "properties": {"norad_id": 30670, "name": "FENGYUN 1C DEB", "group": "fengyun-1c-debris", "lat": -56.22260481191403, "lon": -147.7542386971562, "alt_km": 871.4074551763206, "timestamp": "2025-12-27T09:28:56.754367+00:00", "meta": {"OBJECT_NAME": "FENGYUN 1C DEB", "OBJECT_ID": "1999-025AQC", "EPOCH": "2025-12-27T01:43:16.360032", "MEAN_MOTION": 14.15823287, "ECCENTRICITY": 0.0039358, "INCLINATION": 98.7089, "RA_OF_ASC_NODE": 45.1773, "ARG_OF_PERICENTER": 29.282, "MEAN_ANOMALY": 0.7511, "EPHEMERIS_TYPE": 0, "CLASSIFICATION_TYPE": "U", "NORAD_CAT_ID": 30670, "ELEMENT_SET_NO": 999, "REV_AT_EPOCH": 97355, "BSTAR": 0.00010678, "MEAN_MOTION_DOT": 1.68e-06, "MEAN_MOTION_DDOT": 0}, "tle": {"line1": "1 30670U 99025AQC 25361.07171713  .00000168  00000+0  10678-3 0  9994", "line2": "2 30670  98.7089  45.1773 0039358  29.2820   0.7511 14.15823287973551"}}, "geometry": {"type": "Point", "coordinates": [-147.7542386971562, -56.22260481191403]}}, {"type": "Feature", "properties": {"norad_id": 30671, "name": "FENGYUN 1C DEB", "group": "fengyun-1c-debris", "lat": -28.913164078339328, "lon": -119.00439913411302, "alt_km": 988.65360874827, "timestamp": "2025-12-27T09:28:56.754377+00:00", "meta": {"OBJECT_NAME": "FENGYUN 1C DEB", "OBJECT_ID": "1999-025AQD", "EPOCH": "2025-12-27T03:37:48.392256", "MEAN_MOTION": 13.95510529, "ECCENTRICITY": 0.0125648, "INCLINATION": 99.2516, "RA_OF_ASC_NODE": 65.9159, "ARG_OF_PERICENTER": 353.6879, "MEAN_ANOMALY": 72.0115, "EPHEMERIS_TYPE": 0, "CLASSIFICATION_TYPE": "U", "NORAD_CAT_ID": 30671, "ELEMENT_SET_NO": 999, "REV_AT_EPOCH": 95396, "BSTAR": 0.0012581, "MEAN_MOTION_DOT": 1.78e-05, "MEAN_MOTION_DDOT": 0}, "tle": {"line1": "1 30671U 99025AQD 25361.15125454  .00001780  00000+0  12581-2 0  9990", "line2": "2 30671  99.2516  65.9159 0125648 353.6879  72.0115 13.95510529953961"}}, "geometry": {"type": "Point", "coordinates": [-119.00439913411302, -28.913164078339328]}}, {"type": "Feature", "properties": {"norad_id": 30673, "name": "FENGYUN 1C DEB", "group": "fengyun-1c-debris", "lat": 80.90792100830195, "lon": -28.565261242104544, "alt_km": 837.2566360116234, "timestamp": "2025-12-27T09:28:56.754387+00:00", "meta": {"OBJECT_NAME": "FENGYUN 1C DEB", "OBJECT_ID": "1999-025AQF", "EPOCH": "2025-12-27T02:28:51.518784", "MEAN_MOTION": 14.03458641, "ECCENTRICITY": 0.0052763, "INCLINATION": 98.9173, "RA_OF_ASC_NODE": 49.9841, "ARG_OF_PERICENTER": 103.4081, "MEAN_ANOMALY": 311.8658, "EPHEMERIS_TYPE": 0, "CLASSIFICATION_TYPE": "U", "NORAD_CAT_ID": 30673, "ELEMENT_SET_NO": 999, "REV_AT_EPOCH": 96733, "BSTAR": 0.00011625, "MEAN_MOTION_DOT": 1.41e-06, "MEAN_MOTION_DDOT": 0}, "tle": {"line1": "1 30673U 99025AQF 25361.10337406  .00000141  00000+0  11625-3 0  9998", "line2": "2 30673  98.9173  49.9841 0052763 103.4081 311.8658 14.03458641967339"}}, "geometry": {"type": "Point", "coordinates": [-28.565261242104544, 80.90792100830195]}}, {"type": "Feature", "properties": {"norad_id": 30674, "name": "FENGYUN 1C DEB", "group": "fengyun-1c-debris", "lat": -65.90476777577234, "lon": -173.10980246329456, "alt_km": 565.5487175574408, "timestamp": "2025-12-27T09:28:56.754397+00:00", "meta": {"OBJECT_NAME": "FENGYUN 1C DEB", "OBJECT_ID": "1999-025AQG", "EPOCH": "2025-12-26T22:33:41.262624", "MEAN_MOTION": 14.97988155, "ECCENTRICITY": 0.0023945, "INCLINATION": 98.9378, "RA_OF_ASC_NODE": 165.7659, "ARG_OF_PERICENTER": 264.1922, "MEAN_ANOMALY": 95.6567, "EPHEMERIS_TYPE": 0, "CLASSIFICATION_TYPE": "U", "NORAD_CAT_ID": 30674, "ELEMENT_SET_NO": 999, "REV_AT_EPOCH": 97564, "BSTAR": 0.0095878, "MEAN_MOTION_DOT": 0.00115569, "MEAN_MOTION_DDOT": 0}, "tle": {"line1": "1 30674U 99025AQG 25360.94006091  .00115569  00000+0  95878-2 0  9995", "line2": "2 30674  98.9378 165.7659 0023945 264.1922  95.6567 14.97988155975640"}}, "geometry": {"type": "Point", "coordinates": [-173.10980246329456, -65.90476777577234]}}, {"type": "Feature", "properties": {"norad_id": 30675, "name": "FENGYUN 1C DEB", "group": "fengyun-1c-debris", "lat": -51.04653648819064, "lon": 91.52966686644899, "alt_km": 845.3435274651711, "timestamp": "2025-12-27T09:28:56.754407+00:00", "meta": {"OBJECT_NAME": "FENGYUN 1C DEB", "OBJECT_ID": "1999-025AQH", "EPOCH": "2025-12-26T05:25:05.314944", "MEAN_MOTION": 14.27505797, "ECCENTRICITY": 0.0053497, "INCLINATION": 98.7537, "RA_OF_ASC_NODE": 79.3717, "ARG_OF_PERICENTER": 131.0193, "MEAN_ANOMALY": 291.2702, "EPHEMERIS_TYPE": 0, "CLASSIFICATION_TYPE": "U", "NORAD_CAT_ID": 30675, "ELEMENT_SET_NO": 999, "REV_AT_EPOCH": 97084, "BSTAR": 0.00163, "MEAN_MOTION_DOT": 4.024e-05, "MEAN_MOTION_DDOT": 0}, "tle": {"line1": "1 30675U 99025AQH 25360.22575596  .00004024  00000+0  16300-2 0  9994", "line2": "2 30675  98.7537  79.3717 0053497 131.0193 291.2702 14.27505797970840"}}, "geometry": {"type": "Point", "coordinates": [91.52966686644899, -51.04653648819064]}}]}